ONEWEB-0189             
1 48217U 21031H   26156.66935067  .00000284  00000+0  73191-3 0  9998
2 48217  87.8959 291.9938 0001796 109.6860 250.4463 13.14502727246710
ONEWEB-0196             
1 48218U 21031J   26156.79938221 -.00000077  00000+0 -24339-3 0  9990
2 48218  87.8957 291.9774 0001878 104.5076 255.6262 13.14502501246737
ONEWEB-0183             
1 48219U 21031K   26156.62177547 -.00000052  00000+0 -17406-3 0  9999
2 48219  87.8958 292.0108 0002040  98.3852 261.7509 13.14502673246806
ONEWEB-0185             
1 48220U 21031L   26156.80016392 -.00000011  00000+0 -64787-4 0  9991
2 48220  87.8961 291.9679 0002193 105.8017 254.3355 13.14502508246757
ONEWEB-0187             
1 48221U 21031M   26156.70409649 -.00000143  00000+0 -42153-3 0  9990
2 48221  87.8948 292.0036 0001993 106.5261 253.6088 13.14502443246751
ONEWEB-0192             
1 48222U 21031N   26156.67409556  .00000250  00000+0  63922-3 0  9998
2 48222  87.8954 292.0001 0001730 102.0273 258.1050 13.14504537246669
ONEWEB-0219             
1 48223U 21031P   26156.80571486  .00000045  00000+0  87281-4 0  9993
2 48223  87.8952 291.9658 0002034 105.9279 254.2075 13.14504036246882
ONEWEB-0202             
1 48224U 21031Q   26156.63446145 -.00000191  00000+0 -54968-3 0  9997
2 48224  87.8958 292.0115 0001455 118.0591 242.0686 13.14502144246844
ONEWEB-0204             
1 48225U 21031R   26156.66855910  .00000121  00000+0  29058-3 0  9998
2 48225  87.8960 291.9997 0002200  97.9898 262.1481 13.14501765246741
ONEWEB-0205             
1 48226U 21031S   26156.79620527 -.00000169  00000+0 -49121-3 0  9994
2 48226  87.8962 291.9663 0001939 106.1649 253.9694 13.14504175246774
ONEWEB-0206             
1 48227U 21031T   26156.61701899 -.00000031  00000+0 -11851-3 0  9995
2 48227  87.8962 292.0044 0001797  94.4134 265.7201 13.14502929246703
ONEWEB-0182             
1 48228U 21031U   26156.61225722  .00000053  00000+0  10782-3 0  9996
2 48228  87.8965 292.0132 0002109  98.1492 261.9876 13.14501541246919
ONEWEB-0186             
1 48229U 21031V   26156.62335390 -.00000177  00000+0 -51190-3 0  9998
2 48229  87.8964 292.0007 0001869 103.0838 257.0500 13.14501681246861
ONEWEB-0181             
1 48230U 21031W   26156.60116367  .00000269  00000+0  69227-3 0  9999
2 48230  87.8950 292.0366 0001880 106.1538 253.9799 13.14502765246713
ONEWEB-0188             
1 48231U 21031X   26156.41086635 -.00000083  00000+0 -25733-3 0  9993
2 48231  87.8946 292.0732 0001934 100.8292 259.3055 13.14503926246595
ONEWEB-0220             
1 48232U 21031Y   26156.67884616  .00000206  00000+0  52134-3 0  9997
2 48232  87.8964 291.9915 0002062 107.2633 252.8722 13.14501610246890
ONEWEB-0165             
1 48233U 21031Z   26156.63127381 -.00000478  00000+0 -13240-2 0  9990
2 48233  87.8956 292.0143 0001751 109.5546 250.5773 13.14504114246847
ONEWEB-0199             
1 48234U 21031AA  26156.61543148 -.00000062  00000+0 -20132-3 0  9990
2 48234  87.8966 292.0028 0001854  94.5232 265.6109 13.14502167246745
ONEWEB-0203             
1 48235U 21031AB  26156.60591685  .00000156  00000+0  38761-3 0  9998
2 48235  87.8963 292.0083 0001719  99.3055 260.8269 13.14501401246755
ONEWEB-0197             
1 48236U 21031AC  26156.80876372  .00000013  00000+0 -28582-6 0  9996
2 48236  87.8947 291.9554 0002196 100.2150 259.9227 13.14503427246693
ONEWEB-0194             
1 48237U 21031AD  26156.63604087 -.00000153  00000+0 -44750-3 0  9998
2 48237  87.8958 292.0106 0001733  93.4673 266.6655 13.14501895246844
ONEWEB-0193             
1 48238U 21031AE  26156.80413492  .00000005  00000+0 -19892-4 0  9991
2 48238  87.8957 291.9683 0001641  87.1526 272.9792 13.14502620246813
ONEWEB-0191             
1 48239U 21031AF  26156.35853600  .00000264  00000+0  67760-3 0  9993
2 48239  87.8959 292.0548 0002092  97.8230 262.3138 13.14502466246612
ONEWEB-0195             
1 48240U 21031AG  26156.41163678 -.00000255  00000+0 -72222-3 0  9992
2 48240  87.8962 292.0448 0001781 112.3071 247.8248 13.14501944246606
ONEWEB-0201             
1 48241U 21031AH  26156.62825034 -.00000059  00000+0 -19273-3 0  9996
2 48241  87.8955 292.0184 0002171 100.9997 259.1377 13.14504439246869
ONEWEB-0207             
1 48242U 21031AJ  26156.60829250  .00000256  00000+0  65614-3 0  9996
2 48242  87.8964 292.0068 0002161 101.2704 258.8669 13.14502760246775
ONEWEB-0208             
1 48243U 21031AK  26156.66618169  .00000257  00000+0  65865-3 0  9997
2 48243  87.8960 292.0022 0001670 109.9854 250.1456 13.14503062246794
ONEWEB-0200             
1 48244U 21031AL  26156.70581220 -.00000174  00000+0 -50294-3 0  9990
2 48244  87.8960 291.9801 0001867 103.2601 256.8737 13.14502348246727
ONEWEB-0217             
1 48245U 21031AM  26156.79779263 -.00000069  00000+0 -21990-3 0  9990
2 48245  87.8963 291.9663 0001777 110.0861 250.0460 13.14502317246681
ONEWEB-0211             
1 48767U 21045A   26156.55989174 -.00000035  00000+0 -12636-3 0  9992
2 48767  87.9004 261.4007 0001479 119.8349 240.2929 13.16196357242916
