OBJECT_NAME,OBJECT_ID,EPOCH,MEAN_MOTION,ECCENTRICITY,INCLINATION,RA_OF_ASC_NODE,ARG_OF_PERICENTER,MEAN_ANOMALY,EPHEMERIS_TYPE,CLASSIFICATION_TYPE,NORAD_CAT_ID,ELEMENT_SET_NO,REV_AT_EPOCH,BSTAR,MEAN_MOTION_DOT,MEAN_MOTION_DDOT
ONEWEB-0189,2021-031H,2026-06-05T16:03:51.897888,13.14502727,.0001796,87.8959,291.9938,109.6860,250.4463,0,U,48217,999,24671,.73191E-3,.284E-5,0
ONEWEB-0196,2021-031J,2026-06-05T19:11:06.622944,13.14502501,.0001878,87.8957,291.9774,104.5076,255.6262,0,U,48218,999,24673,-.24339E-3,-.77E-6,0
ONEWEB-0183,2021-031K,2026-06-05T14:55:21.400608,13.14502673,.000204,87.8958,292.0108,98.3852,261.7509,0,U,48219,999,24680,-.17406E-3,-.52E-6,0
ONEWEB-0185,2021-031L,2026-06-05T19:12:14.162688,13.14502508,.0002193,87.8961,291.9679,105.8017,254.3355,0,U,48220,999,24675,-.64787E-4,-.11E-6,0
ONEWEB-0187,2021-031M,2026-06-05T16:53:53.936736,13.14502443,.0001993,87.8948,292.0036,106.5261,253.6088,0,U,48221,999,24675,-.42153E-3,-.143E-5,0
ONEWEB-0192,2021-031N,2026-06-05T16:10:41.856384,13.14504537,.000173,87.8954,292.0001,102.0273,258.1050,0,U,48222,999,24666,.63922E-3,.25E-5,0
ONEWEB-0219,2021-031P,2026-06-05T19:20:13.763904,13.14504036,.0002034,87.8952,291.9658,105.9279,254.2075,0,U,48223,999,24688,.87281E-4,.45E-6,0
ONEWEB-0202,2021-031Q,2026-06-05T15:13:37.469280,13.14502144,.0001455,87.8958,292.0115,118.0591,242.0686,0,U,48224,999,24684,-.54968E-3,-.191E-5,0
ONEWEB-0204,2021-031R,2026-06-05T16:02:43.506240,13.14501765,.00022,87.8960,291.9997,97.9898,262.1481,0,U,48225,999,24674,.29058E-3,.121E-5,0
ONEWEB-0205,2021-031S,2026-06-05T19:06:32.135328,13.14504175,.0001939,87.8962,291.9663,106.1649,253.9694,0,U,48226,999,24677,-.49121E-3,-.169E-5,0
ONEWEB-0206,2021-031T,2026-06-05T14:48:30.440736,13.14502929,.0001797,87.8962,292.0044,94.4134,265.7201,0,U,48227,999,24670,-.11851E-3,-.31E-6,0
ONEWEB-0182,2021-031U,2026-06-05T14:41:39.023808,13.14501541,.0002109,87.8965,292.0132,98.1492,261.9876,0,U,48228,999,24691,.10782E-3,.53E-6,0
ONEWEB-0186,2021-031V,2026-06-05T14:57:37.776960,13.14501681,.0001869,87.8964,292.0007,103.0838,257.0500,0,U,48229,999,24686,-.5119E-3,-.177E-5,0
ONEWEB-0181,2021-031W,2026-06-05T14:25:40.541088,13.14502765,.000188,87.8950,292.0366,106.1538,253.9799,0,U,48230,999,24671,.69227E-3,.269E-5,0
ONEWEB-0188,2021-031X,2026-06-05T09:51:38.852640,13.14503926,.0001934,87.8946,292.0732,100.8292,259.3055,0,U,48231,999,24659,-.25733E-3,-.83E-6,0
ONEWEB-0220,2021-031Y,2026-06-05T16:17:32.308224,13.14501610,.0002062,87.8964,291.9915,107.2633,252.8722,0,U,48232,999,24689,.52134E-3,.206E-5,0
ONEWEB-0165,2021-031Z,2026-06-05T15:09:02.057184,13.14504114,.0001751,87.8956,292.0143,109.5546,250.5773,0,U,48233,999,24684,-.1324E-2,-.478E-5,0
ONEWEB-0199,2021-031AA,2026-06-05T14:46:13.279872,13.14502167,.0001854,87.8966,292.0028,94.5232,265.6109,0,U,48234,999,24674,-.20132E-3,-.62E-6,0
ONEWEB-0203,2021-031AB,2026-06-05T14:32:31.215840,13.14501401,.0001719,87.8963,292.0083,99.3055,260.8269,0,U,48235,999,24675,.38761E-3,.156E-5,0
ONEWEB-0197,2021-031AC,2026-06-05T19:24:37.185408,13.14503427,.0002196,87.8947,291.9554,100.2150,259.9227,0,U,48236,999,24669,-.28582E-6,.13E-6,0
ONEWEB-0194,2021-031AD,2026-06-05T15:15:53.931168,13.14501895,.0001733,87.8958,292.0106,93.4673,266.6655,0,U,48237,999,24684,-.4475E-3,-.153E-5,0
ONEWEB-0193,2021-031AE,2026-06-05T19:17:57.257088,13.14502620,.0001641,87.8957,291.9683,87.1526,272.9792,0,U,48238,999,24681,-.19892E-4,.5E-7,0
ONEWEB-0191,2021-031AF,2026-06-05T08:36:17.510400,13.14502466,.0002092,87.8959,292.0548,97.8230,262.3138,0,U,48239,999,24661,.6776E-3,.264E-5,0
ONEWEB-0195,2021-031AG,2026-06-05T09:52:45.417792,13.14501944,.0001781,87.8962,292.0448,112.3071,247.8248,0,U,48240,999,24660,-.72222E-3,-.255E-5,0
ONEWEB-0201,2021-031AH,2026-06-05T15:04:40.829376,13.14504439,.0002171,87.8955,292.0184,100.9997,259.1377,0,U,48241,999,24686,-.19273E-3,-.59E-6,0
ONEWEB-0207,2021-031AJ,2026-06-05T14:35:56.472000,13.14502760,.0002161,87.8964,292.0068,101.2704,258.8669,0,U,48242,999,24677,.65614E-3,.256E-5,0
ONEWEB-0208,2021-031AK,2026-06-05T15:59:18.098016,13.14503062,.000167,87.8960,292.0022,109.9854,250.1456,0,U,48243,999,24679,.65865E-3,.257E-5,0
ONEWEB-0200,2021-031AL,2026-06-05T16:56:22.174080,13.14502348,.0001867,87.8960,291.9801,103.2601,256.8737,0,U,48244,999,24672,-.50294E-3,-.174E-5,0
ONEWEB-0217,2021-031AM,2026-06-05T19:08:49.283232,13.14502317,.0001777,87.8963,291.9663,110.0861,250.0460,0,U,48245,999,24668,-.2199E-3,-.69E-6,0
ONEWEB-0211,2021-045A,2026-06-05T13:26:14.646336,13.16196357,.0001479,87.9004,261.4007,119.8349,240.2929,0,U,48767,999,24291,-.12636E-3,-.35E-6,0
